OBJECT_NAME,OBJECT_ID,EPOCH,MEAN_MOTION,ECCENTRICITY,INCLINATION,RA_OF_ASC_NODE,ARG_OF_PERICENTER,MEAN_ANOMALY,EPHEMERIS_TYPE,CLASSIFICATION_TYPE,NORAD_CAT_ID,ELEMENT_SET_NO,REV_AT_EPOCH,BSTAR,MEAN_MOTION_DOT,MEAN_MOTION_DDOT
YUNHAI-1 03,2022-115A,2026-06-17T12:52:45.728832,14.32718318,.0005774,98.5532,166.6793,54.7735,305.3989,0,U,53877,999,19556,.1205E-3,.284E-5,0
CENTISPACE-1 S5,2022-126A,2026-06-17T11:50:47.305248,14.63014518,.0014602,54.9976,211.7342,73.0132,287.2462,0,U,54020,999,19708,.10951E-3,.376E-5,0
CENTISPACE-1 S6,2022-126B,2026-06-17T11:41:10.542912,14.62290863,.0016451,54.9980,213.6275,73.1131,287.1665,0,U,54021,999,19704,.73782E-4,.186E-5,0
OTB-3-GAZELLE,2022-127A,2026-06-17T11:25:20.064288,14.42674547,.0013,98.3944,160.1759,182.2343,177.8791,0,U,54023,999,19440,.44938E-4,.106E-5,0
ASO-S,2022-129A,2026-06-17T12:42:24.196608,14.52061930,.0015774,98.2747,173.6050,91.7589,268.5413,0,U,54029,999,19547,.51591E-4,.164E-5,0
HJ-2E,2022-132A,2026-06-17T11:34:18.210144,15.22319252,.0020483,97.3793,172.8531,14.1775,346.0032,0,U,54035,999,20446,.29177E-3,.6693E-4,0
COSMOS 2561,2022-137A,2026-06-17T13:10:32.490624,15.51709772,.0010604,96.9173,227.5365,35.0120,325.1828,0,U,54109,999,20640,.17829E-3,.1055E-3,0
GONETS-M 23,2022-139A,2026-06-17T12:06:07.967232,12.42890886,.002092,82.5072,348.0973,218.9577,140.9996,0,U,54150,999,16568,.61345E-4,.18E-6,0
GONETS-M 24,2022-139B,2026-06-17T11:27:23.092704,12.42891476,.0016019,82.4989,347.1736,229.3207,130.6481,0,U,54151,999,16568,.47862E-4,.16E-6,0
GONETS-M 25,2022-139C,2026-06-17T11:07:46.902720,12.42890044,.001994,82.5055,347.8686,228.1653,131.7724,0,U,54152,999,16568,.34207E-4,.15E-6,0
SKIF-D,2022-139D,2026-06-17T06:09:45.863712,5.00427603,.0007384,89.9509,96.6677,199.1602,160.8623,0,U,54153,999,6411,0,.12E-6,0
MATS,2022-147A,2026-06-17T12:20:30.519168,15.05355154,.0012102,97.6817,170.1097,190.0692,170.0293,0,U,54227,999,19781,.13684E-3,.19E-4,0
JILIN-1 GAOFEN 03D54,2022-155D,2026-06-17T02:05:46.563936,15.98577285,.0005893,97.6131,321.1856,262.8455,97.2152,0,U,54254,999,20028,.75735E-3,.354208E-2,.54093E-4
EOS-6 (OCEANSAT-3),2022-158A,2026-06-17T12:12:10.723680,14.47000591,.0001204,98.3541,266.6983,49.0931,311.0366,0,U,54361,999,18788,.7048E-4,.213E-5,0
DONGPO 09,2022-167D,2026-06-17T12:57:58.381056,15.36341731,.0003543,97.6898,339.5622,115.4949,244.6660,0,U,54685,999,19550,.28198E-3,.991E-4,0
DONGPO 08,2022-167E,2026-06-17T12:30:45.058176,15.33651595,.000868,97.6863,336.7189,159.4457,200.7136,0,U,54686,999,19537,.27218E-3,.8782E-4,0
2022-167F,2022-167F,2026-06-17T05:02:02.719680,15.92722258,.0001908,97.6110,356.1296,231.1370,128.9734,0,U,54687,999,19683,.61052E-3,.20794E-2,.18438E-4
DONGPO 10,2022-167H,2026-06-17T12:40:03.884736,15.34459834,.0006276,97.6943,338.6780,109.1390,251.0532,0,U,54689,999,19541,.26986E-3,.8928E-4,0
JILIN-1 GAOFEN 03D48,2022-167P,2026-06-17T12:36:31.257792,15.35226990,.0007619,97.6878,338.0534,113.8728,246.3313,0,U,54695,999,19544,.27341E-3,.9274E-4,0
STAR VIBE,2023-001A,2026-06-17T10:18:56.009088,15.42620765,.0007147,97.3168,232.8946,111.9048,248.2960,0,U,55009,999,19226,.25715E-3,.11115E-3,0
BRO-8,2023-001C,2026-06-17T12:00:27.481248,15.49076427,.00068,97.3212,233.6884,123.5651,236.6251,0,U,55011,999,19225,.49085E-3,.26612E-3,0
CONNECTA T1.2,2023-001D,2026-06-16T23:27:17.462016,15.50705483,.00066,97.3269,238.6640,103.5919,256.6068,0,U,55012,999,19251,.61084E-3,.35133E-3,0
BIRKELAND,2023-001G,2026-06-17T11:18:45.858240,15.40080749,.0008365,97.3344,236.4418,104.4289,255.7886,0,U,55015,999,19239,.18493E-3,.7321E-4,0
ION SCV-008,2023-001AU,2026-06-17T08:51:09.732960,15.28577565,.0014997,97.5715,264.6896,17.9325,342.2441,0,U,55051,999,19136,.17611E-3,.4832E-4,0
ION SCV-007,2023-001BD,2026-06-17T03:07:31.987776,14.77553411,.0011811,97.9007,231.1463,342.4281,17.6520,0,U,55060,999,18624,.56915E-4,.356E-5,0
HUYGENS,2023-001CN,2026-06-17T11:18:53.306784,15.40081302,.0011084,97.3249,235.6714,85.4832,274.7680,0,U,55093,999,19241,.1905E-3,.7551E-4,0
SHARJAHSAT-1,2023-001CZ,2026-06-17T10:27:34.477344,15.49069014,.0007048,97.3170,237.2050,102.5158,257.6882,0,U,55104,999,19253,.29416E-3,.15887E-3,0
HORUS 1,2023-025A,2026-06-17T13:07:43.936320,15.23265318,.0001386,97.3462,243.1355,149.4652,210.6666,0,U,55690,999,18410,.199E-3,.4647E-4,0
HORUS 2,2023-032A,2026-06-17T12:24:23.423328,15.23429832,.0002277,97.3535,243.9111,105.4898,254.6590,0,U,55844,999,18153,.19405E-3,.4551E-4,0
GLOBAL-19,2023-041B,2026-06-15T09:50:42.386784,15.37989803,.00091226,41.9998,212.2489,350.7083,9.3586,0,U,55982,999,18165,.25105828E-3,.935E-4,0
