YUNHAI-1 03             
1 53877U 22115A   26168.53664038  .00000284  00000+0  12050-3 0  9993
2 53877  98.5532 166.6793 0005774  54.7735 305.3989 14.32718318195567
CENTISPACE-1 S5         
1 54020U 22126A   26168.49360307  .00000376  00000+0  10951-3 0  9993
2 54020  54.9976 211.7342 0014602  73.0132 287.2462 14.63014518197081
CENTISPACE-1 S6         
1 54021U 22126B   26168.48692758  .00000186  00000+0  73782-4 0  9992
2 54021  54.9980 213.6275 0016451  73.1131 287.1665 14.62290863197045
OTB-3-GAZELLE           
1 54023U 22127A   26168.47592667  .00000106  00000+0  44938-4 0  9995
2 54023  98.3944 160.1759 0013000 182.2343 177.8791 14.42674547194401
ASO-S                   
1 54029U 22129A   26168.52944672  .00000164  00000+0  51591-4 0  9993
2 54029  98.2747 173.6050 0015774  91.7589 268.5413 14.52061930195470
HJ-2E                   
1 54035U 22132A   26168.48215521  .00006693  00000+0  29177-3 0  9990
2 54035  97.3793 172.8531 0020483  14.1775 346.0032 15.22319252204462
COSMOS 2561             
1 54109U 22137A   26168.54898716  .00010550  00000+0  17829-3 0  9995
2 54109  96.9173 227.5365 0010604  35.0120 325.1828 15.51709772206403
GONETS-M 23             
1 54150U 22139A   26168.50425888  .00000018  00000+0  61345-4 0  9996
2 54150  82.5072 348.0973 0020920 218.9577 140.9996 12.42890886165689
GONETS-M 24             
1 54151U 22139B   26168.47735061  .00000016  00000+0  47862-4 0  9996
2 54151  82.4989 347.1736 0016019 229.3207 130.6481 12.42891476165684
GONETS-M 25             
1 54152U 22139C   26168.46373730  .00000015  00000+0  34207-4 0  9995
2 54152  82.5055 347.8686 0019940 228.1653 131.7724 12.42890044165681
SKIF-D                  
1 54153U 22139D   26168.25678083  .00000012  00000+0  00000+0 0  9998
2 54153  89.9509  96.6677 0007384 199.1602 160.8623  5.00427603 64116
MATS                    
1 54227U 22147A   26168.51424212  .00001900  00000+0  13684-3 0  9994
2 54227  97.6817 170.1097 0012102 190.0692 170.0293 15.05355154197810
JILIN-1 GAOFEN 03D54    
1 54254U 22155D   26168.08734449  .00354208  54093-4  75735-3 0  9994
2 54254  97.6131 321.1856 0005893 262.8455  97.2152 15.98577285200287
EOS-6 (OCEANSAT-3)      
1 54361U 22158A   26168.50845745  .00000213  00000+0  70480-4 0  9996
2 54361  98.3541 266.6983 0001204  49.0931 311.0366 14.47000591187887
DONGPO 09               
1 54685U 22167D   26168.54025904  .00009910  00000+0  28198-3 0  9997
2 54685  97.6898 339.5622 0003543 115.4949 244.6660 15.36341731195507
DONGPO 08               
1 54686U 22167E   26168.52135484  .00008782  00000+0  27218-3 0  9999
2 54686  97.6863 336.7189 0008680 159.4457 200.7136 15.33651595195371
2022-167F               
1 54687U 22167F   26168.20975370  .00207940  18438-4  61052-3 0  9991
2 54687  97.6110 356.1296 0001908 231.1370 128.9734 15.92722258196837
DONGPO 10               
1 54689U 22167H   26168.52782274  .00008928  00000+0  26986-3 0  9990
2 54689  97.6943 338.6780 0006276 109.1390 251.0532 15.34459834195415
JILIN-1 GAOFEN 03D48    
1 54695U 22167P   26168.52536178  .00009274  00000+0  27341-3 0  9998
2 54695  97.6878 338.0534 0007619 113.8728 246.3313 15.35226990195442
STAR VIBE               
1 55009U 23001A   26168.42981492  .00011115  00000+0  25715-3 0  9998
2 55009  97.3168 232.8946 0007147 111.9048 248.2960 15.42620765192261
BRO-8                   
1 55011U 23001C   26168.50031807  .00026612  00000+0  49085-3 0  9990
2 55011  97.3212 233.6884 0006800 123.5651 236.6251 15.49076427192258
CONNECTA T1.2           
1 55012U 23001D   26167.97728544  .00035133  00000+0  61084-3 0  9993
2 55012  97.3269 238.6640 0006600 103.5919 256.6068 15.50705483192519
BIRKELAND               
1 55015U 23001G   26168.47136410  .00007321  00000+0  18493-3 0  9991
2 55015  97.3344 236.4418 0008365 104.4289 255.7886 15.40080749192399
ION SCV-008             
1 55051U 23001AU  26168.36886265  .00004832  00000+0  17611-3 0  9994
2 55051  97.5715 264.6896 0014997  17.9325 342.2441 15.28577565191361
ION SCV-007             
1 55060U 23001BD  26168.13023134  .00000356  00000+0  56915-4 0  9995
2 55060  97.9007 231.1463 0011811 342.4281  17.6520 14.77553411186246
HUYGENS                 
1 55093U 23001CN  26168.47145031  .00007551  00000+0  19050-3 0  9991
2 55093  97.3249 235.6714 0011084  85.4832 274.7680 15.40081302192415
SHARJAHSAT-1            
1 55104U 23001CZ  26168.43581571  .00015887  00000+0  29416-3 0  9991
2 55104  97.3170 237.2050 0007048 102.5158 257.6882 15.49069014192531
HORUS 1                 
1 55690U 23025A   26168.54703630  .00004647  00000+0  19900-3 0  9990
2 55690  97.3462 243.1355 0001386 149.4652 210.6666 15.23265318184107
HORUS 2                 
1 55844U 23032A   26168.51693777  .00004551  00000+0  19405-3 0  9990
2 55844  97.3535 243.9111 0002277 105.4898 254.6590 15.23429832181532
GLOBAL-19               
1 55982U 23041B   26166.41021281  .00009350  00000+0  25106-3 0  9992
2 55982  41.9998 212.2489 0009122 350.7083   9.3586 15.37989803181654
